
# Worst residual: 118.37 km
# MJD 60105.000000 (2023 Jun 10  0:00)
A10TIlk = A10TP03 = A10Tsha = A10S4kC
1 79969U 23999ZZT 23161.49919926  .00000000  00000-0  00000-0 0 19074
2 79969 037.6342 357.6616 5113466 056.3033 254.6333 01.04857638    05

# Worst residual: 132.08 km
# MJD 60106.000000 (2023 Jun 11  0:00)
A10TIlk = A10TP03 = A10Tsha = A10S4kC
1 79969U 23999ZZT 23162.49919926  .00000000  00000-0  00000-0 0 19075
2 79969 037.5798 357.4872 5075355 057.4947 271.6939 01.04923548    06

# Worst residual: 178.06 km
# MJD 60107.000000 (2023 Jun 12  0:00)
A10TIlk = A10TP03 = A10Tsha = A10S4kC
1 79969U 23999ZZT 23163.49919926  .00000000  00000-0  00000-0 0 19076
2 79969 037.5215 357.3265 5036487 058.7116 288.7520 01.04988441    08

# Worst residual: 198.60 km
# MJD 60108.000000 (2023 Jun 13  0:00)
A10TIlk = A10TP03 = A10Tsha = A10S4kC
1 79969U 23999ZZT 23164.49919926  .00000000  00000-0  00000-0 0 19077
2 79969 037.4767 357.1726 4995547 059.9167 305.8278 01.05100983    07

# Worst residual: 189.07 km
# MJD 60109.000000 (2023 Jun 14  0:00)
A10TIlk = A10TP03 = A10Tsha = A10S4kC
1 79969U 23999ZZT 23165.49919926  .00000000  00000-0  00000-0 0 19078
2 79969 037.4396 356.9960 4955459 061.1647 322.8819 01.05192920    00

# Worst residual: 161.85 km
# MJD 60110.000000 (2023 Jun 15  0:00)
A10TIlk = A10TP03 = A10Tsha = A10S4kC
1 79969U 23999ZZT 23166.49919926  .00000000  00000-0  00000-0 0 19079
2 79969 037.3898 356.8284 4910743 062.3886 340.0195 01.05280630    04

# Worst residual: 142.27 km
# MJD 60111.000000 (2023 Jun 16  0:00)
A10TIlk = A10TP03 = A10Tsha = A10S4kC
1 79969U 23999ZZT 23167.49919926  .00000000  00000-0  00000-0 0 19070
2 79969 037.3388 356.6452 4867660 063.6260 357.1696 01.05363401    05

# Worst residual: 135.91 km
# MJD 60112.000000 (2023 Jun 17  0:00)
A10TIlk = A10TP03 = A10Tsha = A10S4kC
1 79969U 23999ZZT 23168.49919926  .00000000  00000-0  00000-0 0 19071
2 79969 037.3181 356.5280 4823653 064.8056 014.3439 01.05431016    09

# Worst residual: 112.26 km
# MJD 60113.000000 (2023 Jun 18  0:00)
A10TIlk = A10TP03 = A10Tsha = A10S4kC
1 79969U 23999ZZT 23169.49919926  .00000000  00000-0  00000-0 0 19072
2 79969 037.2742 356.3626 4781080 066.0080 031.5350 01.05472805    05

# Worst residual: 134.63 km
# MJD 60114.000000 (2023 Jun 19  0:00)
A10TIlk = A10TP03 = A10Tsha = A10S4kC
1 79969U 23999ZZT 23170.49919926  .00000000  00000-0  00000-0 0 19074
2 79969 037.2383 356.2103 4740581 067.2261 048.7067 01.05477435    09

# Worst residual: 168.85 km
# MJD 60115.000000 (2023 Jun 20  0:00)
A10TIlk = A10TP03 = A10Tsha = A10S4kC
1 79969U 23999ZZT 23171.49919926  .00000000  00000-0  00000-0 0 19075
2 79969 037.2034 356.0572 4701272 068.4686 065.8480 01.05451054    06

# Worst residual: 189.63 km
# MJD 60116.000000 (2023 Jun 21  0:00)
A10TIlk = A10TP03 = A10Tsha = A10S4kC
1 79969U 23999ZZT 23172.49919926  .00000000  00000-0  00000-0 0 19076
2 79969 037.1699 355.9040 4662761 069.7506 082.9326 01.05397745    09

# Worst residual: 186.31 km
# MJD 60117.000000 (2023 Jun 22  0:00)
A10TIlk = A10TP03 = A10Tsha = A10S4kC
1 79969U 23999ZZT 23173.49919926  .00000000  00000-0  00000-0 0 19077
2 79969 037.1341 355.7464 4624452 071.0726 099.9486 01.05324189    03

# Worst residual: 207.59 km
# MJD 60118.000000 (2023 Jun 23  0:00)
A10TIlk = A10TP03 = A10Tsha = A10S4kC
1 79969U 23999ZZT 23174.49919926  .00000000  00000-0  00000-0 0 19078
2 79969 037.1080 355.5931 4583384 072.4306 116.9338 01.05239774    08

# Worst residual: 202.37 km
# MJD 60119.000000 (2023 Jun 24  0:00)
A10TIlk = A10TP03 = A10Tsha = A10S4kC
1 79969U 23999ZZT 23175.49919926  .00000000  00000-0  00000-0 0 19079
2 79969 037.0830 355.4380 4543290 073.7984 133.8781 01.05156247    08

# Worst residual: 185.84 km
# MJD 60120.000000 (2023 Jun 25  0:00)
A10TIlk = A10TP03 = A10Tsha = A10S4kC
1 79969U 23999ZZT 23176.49919926  .00000000  00000-0  00000-0 0 19070
2 79969 037.0619 355.2594 4497305 075.2440 150.7616 01.05053896    08

# Worst residual: 133.23 km
# MJD 60121.000000 (2023 Jun 26  0:00)
A10TIlk = A10TP03 = A10Tsha = A10S4kC
1 79969U 23999ZZT 23177.49919926  .00000000  00000-0  00000-0 0 19071
2 79969 037.0312 355.1386 4451528 076.6085 167.6467 01.04967222    00

# Worst residual: 142.83 km
# MJD 60122.000000 (2023 Jun 27  0:00)
A10TIlk = A10TP03 = A10Tsha = A10S4kC
1 79969U 23999ZZT 23178.49919926  .00000000  00000-0  00000-0 0 19072
2 79969 037.0198 354.9794 4401682 077.9984 184.5552 01.04874120    07

# Worst residual: 114.73 km
# MJD 60123.000000 (2023 Jun 28  0:00)
A10TIlk = A10TP03 = A10Tsha = A10S4kC
1 79969U 23999ZZT 23179.49919926  .00000000  00000-0  00000-0 0 19073
2 79969 037.0057 354.8407 4356151 079.3269 201.5214 01.04811728    03

# Worst residual: 77.93 km
# MJD 60124.000000 (2023 Jun 29  0:00)
A10TIlk = A10TP03 = A10Tsha = A10S4kC
1 79969U 23999ZZT 23180.49919926  .00000000  00000-0  00000-0 0 19075
2 79969 036.9956 354.6968 4317349 080.6638 218.4970 01.04793645    03

# Worst residual: 91.76 km
# MJD 60125.000000 (2023 Jun 30  0:00)
A10TIlk = A10TP03 = A10Tsha = A10S4kC
1 79969U 23999ZZT 23181.49919926  .00000000  00000-0  00000-0 0 19076
2 79969 036.9779 354.5561 4282774 082.0464 235.4090 01.04820831    00

# Worst residual: 118.38 km
# MJD 60126.000000 (2023 Jul  1  0:00)
A10TIlk = A10TP03 = A10Tsha = A10S4kC
1 79969U 23999ZZT 23182.49919926  .00000000  00000-0  00000-0 0 19077
2 79969 036.9685 354.4122 4250070 083.4876 252.2657 01.04858221    04

# Worst residual: 185.95 km
# MJD 60127.000000 (2023 Jul  2  0:00)
A10TIlk = A10TP03 = A10Tsha = A10S4kC
1 79969U 23999ZZT 23183.49919926  .00000000  00000-0  00000-0 0 19078
2 79969 036.9617 354.2666 4217003 084.9852 269.0736 01.04924703    02

# Worst residual: 221.08 km
# MJD 60128.000000 (2023 Jul  3  0:00)
A10TIlk = A10TP03 = A10Tsha = A10S4kC
1 79969U 23999ZZT 23184.49919926  .00000000  00000-0  00000-0 0 19079
2 79969 036.9459 354.0962 4184137 086.5522 285.8441 01.05012913    07

# Worst residual: 235.72 km
# MJD 60129.000000 (2023 Jul  4  0:00)
A10TIlk = A10TP03 = A10Tsha = A10S4kC
1 79969U 23999ZZT 23185.49919926  .00000000  00000-0  00000-0 0 19070
2 79969 036.9574 353.9878 4146303 088.0778 302.6252 01.05103356    02

# Worst residual: 197.91 km
# MJD 60130.000000 (2023 Jul  5  0:00)
A10TIlk = A10TP03 = A10Tsha = A10S4kC
1 79969U 23999ZZT 23186.49919926  .00000000  00000-0  00000-0 0 19071
2 79969 036.9588 353.8554 4109816 089.6639 319.3961 01.05204975    09

# Worst residual: 189.63 km
# MJD 60131.000000 (2023 Jul  6  0:00)
A10TIlk = A10TP03 = A10Tsha = A10S4kC
1 79969U 23999ZZT 23187.49919926  .00000000  00000-0  00000-0 0 19072
2 79969 036.9606 353.7304 4070325 091.1838 336.2415 01.05304095    09

# Worst residual: 186.75 km
# MJD 60132.000000 (2023 Jul  7  0:00)
A10TIlk = A10TP03 = A10Tsha = A10S4kC
1 79969U 23999ZZT 23188.49919926  .00000000  00000-0  00000-0 0 19073
2 79969 036.9638 353.6086 4032469 092.7143 353.1046 01.05390830    03
